SCD 1                   
1 22490U 93009B   26156.71817398  .00000413  00000+0  62196-4 0  9997
2 22490  24.9700 278.3929 0042023  16.9013  92.2958 14.46114784759457
TECHSAT 1B (GO-32)      
1 25397U 98043D   26156.47428677  .00000072  00000+0  51302-4 0  9998
2 25397  99.0065 148.9377 0000406 200.1436 159.9726 14.24426083449664
SCD 2                   
1 25504U 98060A   26156.65541735  .00000397  00000+0  60038-4 0  9994
2 25504  24.9936 143.2746 0016733   2.2603 159.4023 14.45521147458657
DLR-TUBSAT              
1 25757U 99029B   26156.44430132  .00000121  00000+0  41490-4 0  9991
2 25757  98.6693 151.5620 0014761  30.2041 330.0002 14.52423732431546
TERRA                   
1 25994U 99068A   26156.73279197  .00000425  00000+0  95489-4 0  9995
2 25994  97.9461 206.7327 0000845 251.4557 247.9804 14.61093881407938
MAROC-TUBSAT            
1 27004U 01056D   26156.46417399 -.00000029  00000+0  20237-4 0  9997
2 27004  99.8078 333.1031 0019972 170.8138 244.2660 13.70261918224589
AQUA                    
1 27424U 02022A   26156.70638023  .00000892  00000+0  18720-3 0  9993
2 27424  98.4271 125.7604 0001554  55.9161  68.7427 14.62140221281591
SHIYAN-1 (SY-1)         
1 28220U 04012A   26156.63488424  .00014806  00000+0  45987-3 0  9994
2 28220  97.8687 233.9557 0006516  69.5514 290.6426 15.33455796209326
AURA                    
1 28376U 04026A   26156.68826211  .00000888  00000+0  18968-3 0  9990
2 28376  98.3412 113.0470 0001365  70.5305 289.6043 14.61311200164536
IRS-P5 (CARTOSAT-1)     
1 28649U 05017A   26156.33418727  .00001507  00000+0  15768-3 0  9999
2 28649  97.5313 179.9363 0002655  94.7373 265.4149 14.91016980142050
SINAH 1                 
1 28893U 05043D   26156.70982194  .00000374  00000+0  80546-4 0  9992
2 28893  98.2847 290.9654 0013448 315.9827  44.0304 14.64149809 98840
RESURS-DK 1             
1 29228U 06021A   26156.33488814  .00002390  00000+0  14050-3 0  9997
2 29228  69.9334  10.2328 0006160 301.8754  58.1812 15.13161587100785
ARIRANG-2 (KOMPSAT-2)   
1 29268U 06031A   26156.74741495  .00000259  00000+0  56990-4 0  9996
2 29268  97.8304 341.7474 0015790 107.4491 313.9315 14.64652316 59803
LAPAN-TUBSAT            
1 29709U 07001A   26156.73950192  .00000279  00000+0  38610-4 0  9990
2 29709  98.1341 155.7057 0011055 218.7906 141.2516 14.85936627 49453
HAIYANG-1B              
1 31113U 07010A   26156.46812344  .00000102  00000+0  54507-4 0  9996
2 31113  98.3490 138.7681 0012409 233.1985 126.8061 14.31023920998954
COSMO-SKYMED 1          
1 31598U 07023A   26156.70565475  .00002204  00000+0  19652-3 0  9990
2 31598  97.8862 348.4660 0001404  80.7646 279.3734 14.97049135 28074
TERRASAR-X              
1 31698U 07026A   26155.67675039  .00000882  00000+0  45172-4 0  9994
2 31698  97.4453 163.5606 0001619  90.1175 270.0246 15.19148915 51324
WORLDVIEW-1 (WV-1)      
1 32060U 07041A   26156.60634955  .00006821  00000+0  28333-3 0  9999
2 32060  97.3865 276.5188 0003248  52.0445 308.1086 15.24133174 41119
YAOGAN-3                
1 32289U 07055A   26156.71674067  .00001924  00000+0  20156-3 0  9991
2 32289  97.8158 186.7084 0002024  87.3762 272.7688 14.90737114  4167
COSMO-SKYMED 2          
1 32376U 07059A   26156.75174947  .00000465  00000+0  64978-4 0  9998
2 32376  97.8885 340.5158 0001444  87.4188 272.7190 14.82162023   314
RADARSAT-2              
1 32382U 07061A   26156.70253383  .00000124  00000+0  65110-4 0  9996
2 32382  98.5777 163.7993 0001319  80.3937 279.7395 14.29982546964310
CARTOSAT-2A             
1 32783U 08021A   26156.68231909  .00000622  00000+0  90403-4 0  9991
2 32783  97.7635 205.7829 0012450 142.6343 217.5737 14.79220384977106
HUANJING 1A (HJ-1A)     
1 33320U 08041A   26156.70352689  .00000892  00000+0  11315-3 0  9996
2 33320  97.6682 142.9863 0018890 171.4113 188.7429 14.83957688956703
HUANJING 1B (HJ-1B)     
1 33321U 08041B   26156.73487729  .00001355  00000+0  17016-3 0  9993
2 33321  97.6517 146.2232 0035037 219.3673 140.4994 14.83298104956717
GEOEYE 1                
1 33331U 08042A   26156.67529420  .00000538  00000+0  10999-3 0  9998
2 33331  98.1236 230.7522 0005568  97.0399 263.1438 14.64714747948469
THEOS                   
1 33396U 08049A   26156.69592528  .00000348  00000+0  18331-3 0  9994
2 33396  98.5571 214.3521 0001288  79.3418 280.7904 14.20132859916337
COSMO-SKYMED 3          
1 33412U 08054A   26156.72198343  .00003823  00000+0  26004-3 0  9997
2 33412  97.8295  15.1019 0014320 310.4160  49.5816 15.06879855955216
YAOGAN-4                
1 33446U 08061A   26156.56338654  .00001141  00000+0  14608-3 0  9993
2 33446  97.9306  90.1600 0015671 106.7536 253.5398 14.83177572943949
GOSAT (IBUKI)           
1 33492U 09002A   26156.54739363  .00000064  00000+0  19747-4 0  9993
2 33492  98.0877 267.7751 0001565  89.4045 270.7339 14.67538958929753
DEIMOS-1                
1 35681U 09041A   26156.72356531  .00000392  00000+0  65053-4 0  9995
2 35681  97.7396 314.4489 0000850 138.1761 221.9514 14.75224239905196
DUBAISAT-1              
1 35682U 09041B   26156.62540014  .00000959  00000+0  14964-3 0  9999
2 35682  98.0038 290.0109 0011736 106.4241 253.8259 14.75105512903390
